[{"OBJECT_NAME":"STARLINK-32200","OBJECT_ID":"2024-131D","EPOCH":"2026-03-09T08:28:28.640064","MEAN_MOTION":15.30190327,"ECCENTRICITY":0.00014069,"INCLINATION":53.1613,"RA_OF_ASC_NODE":54.2398,"ARG_OF_PERICENTER":84.0345,"MEAN_ANOMALY":276.0816,"EPHEMERIS_TYPE":0,"CLASSIFICATION_TYPE":"U","NORAD_CAT_ID":60258,"ELEMENT_SET_NO":999,"REV_AT_EPOCH":9166,"BSTAR":-6.504171e-6,"MEAN_MOTION_DOT":-5.52e-6,"MEAN_MOTION_DDOT":0},{"OBJECT_NAME":"CZ-6A DEB","OBJECT_ID":"2022-151EM","EPOCH":"2026-03-09T21:12:10.844640","MEAN_MOTION":15.1479521,"ECCENTRICITY":0.00732342,"INCLINATION":98.809,"RA_OF_ASC_NODE":212.6624,"ARG_OF_PERICENTER":10.5605,"MEAN_ANOMALY":349.714,"EPHEMERIS_TYPE":0,"CLASSIFICATION_TYPE":"U","NORAD_CAT_ID":54413,"ELEMENT_SET_NO":999,"REV_AT_EPOCH":17915,"BSTAR":0.0020661814,"MEAN_MOTION_DOT":0.00041137,"MEAN_MOTION_DDOT":0}]
